start=new Date('2021-09-24T00:00:00.000Z').valueOf();
sats=[{"MEAN_MOTION_DOT":"0.00041695","RCS_SIZE":"LARGE","MEAN_MOTION_DDOT":"0.0000000000000","OBJECT_ID":"2021-024AT","GP_ID":"185350592","OBJECT_TYPE":"PAYLOAD","INCLINATION":"53.0490","REV_AT_EPOCH":"360","APOAPSIS":"551.249","EPHEMERIS_TYPE":"0","BSTAR":"0.00286510000000","MEAN_ANOMALY":"3.5629","RA_OF_ASC_NODE":"68.6966","PERIOD":"95.645","ELEMENT_SET_NO":"999","DECAY_DATE":null,"COUNTRY_CODE":"US","NORAD_CAT_ID":"48018","REF_FRAME":"TEME","TLE_LINE1":"1 48018U 21024AT  21266.91668981  .00041695  00000-0  28651-2 0  9994","TIME_SYSTEM":"UTC","MEAN_ELEMENT_THEORY":"SGP4","OBJECT_NAME":"STARLINK-2282","ARG_OF_PERICENTER":"90.8103","TLE_LINE2":"2 48018  53.0490  68.6966 0002129  90.8103   3.5629 15.05564807  3605","ECCENTRICITY":"0.00021290","SITE":"AFETR","CENTER_NAME":"EARTH","PERIAPSIS":"548.300","LAUNCH_DATE":"2021-03-24","SEMIMAJOR_AXIS":"6927.909","MEAN_MOTION":"15.05564807","EPOCH":"2021-09-23T22:00:01.999584","CLASSIFICATION_TYPE":"U","FILE":"3125337"},{"SEMIMAJOR_AXIS":"6925.380","MEAN_MOTION":"15.06389703","CENTER_NAME":"EARTH","PERIAPSIS":"546.146","LAUNCH_DATE":"2021-03-24","EPOCH":"2021-09-23T22:00:01.999584","CLASSIFICATION_TYPE":"U","FILE":"3125337","MEAN_ELEMENT_THEORY":"SGP4","TIME_SYSTEM":"UTC","TLE_LINE1":"1 48019U 21024AU  21266.91668981  .00037096  00000-0  24969-2 0  9993","ECCENTRICITY":"0.00015870","SITE":"AFETR","OBJECT_NAME":"STARLINK-2285","ARG_OF_PERICENTER":"98.3426","TLE_LINE2":"2 48019  53.0564  58.9648 0001587  98.3426  13.8710 15.06389703  3612","MEAN_ANOMALY":"13.8710","RA_OF_ASC_NODE":"58.9648","APOAPSIS":"548.344","EPHEMERIS_TYPE":"0","BSTAR":"0.00249690000000","ELEMENT_SET_NO":"999","DECAY_DATE":null,"COUNTRY_CODE":"US","NORAD_CAT_ID":"48019","REF_FRAME":"TEME","PERIOD":"95.593","MEAN_MOTION_DDOT":"0.0000000000000","OBJECT_ID":"2021-024AU","GP_ID":"185350848","MEAN_MOTION_DOT":"0.00037096","RCS_SIZE":"LARGE","REV_AT_EPOCH":"361","OBJECT_TYPE":"PAYLOAD","INCLINATION":"53.0564"},{"RCS_SIZE":"LARGE","MEAN_MOTION_DOT":"-0.00932856","OBJECT_ID":"2021-024AV","MEAN_MOTION_DDOT":"0.0000000000000","GP_ID":"185349101","OBJECT_TYPE":"PAYLOAD","INCLINATION":"53.0468","REV_AT_EPOCH":"369","APOAPSIS":"467.549","BSTAR":"-0.03141300000000","EPHEMERIS_TYPE":"0","MEAN_ANOMALY":"100.3746","RA_OF_ASC_NODE":"15.2096","PERIOD":"93.926","COUNTRY_CODE":"US","ELEMENT_SET_NO":"999","DECAY_DATE":null,"REF_FRAME":"TEME","NORAD_CAT_ID":"48020","TLE_LINE1":"1 48020U 21024AV  21266.91668981 -.00932856  00000-0 -31413-1 0  9996","TIME_SYSTEM":"UTC","MEAN_ELEMENT_THEORY":"SGP4","ARG_OF_PERICENTER":"56.7819","OBJECT_NAME":"STARLINK-2294","TLE_LINE2":"2 48020  53.0468  15.2096 0001496  56.7819 100.3746 15.33115806  3693","ECCENTRICITY":"0.00014960","SITE":"AFETR","CENTER_NAME":"EARTH","PERIAPSIS":"465.501","LAUNCH_DATE":"2021-03-24","SEMIMAJOR_AXIS":"6844.660","MEAN_MOTION":"15.33115806","CLASSIFICATION_TYPE":"U","EPOCH":"2021-09-23T22:00:01.999584","FILE":"3125337"},{"MEAN_MOTION_DDOT":"0.0000000000000","OBJECT_ID":"2021-024AW","GP_ID":"185349848","RCS_SIZE":"LARGE","MEAN_MOTION_DOT":"-0.01132615","REV_AT_EPOCH":"366","OBJECT_TYPE":"PAYLOAD","INCLINATION":"53.0480","MEAN_ANOMALY":"89.5975","RA_OF_ASC_NODE":"18.9760","APOAPSIS":"540.136","BSTAR":"-0.07679900000000","EPHEMERIS_TYPE":"0","COUNTRY_CODE":"US","ELEMENT_SET_NO":"999","DECAY_DATE":null,"REF_FRAME":"TEME","NORAD_CAT_ID":"48021","PERIOD":"95.425","TIME_SYSTEM":"UTC","MEAN_ELEMENT_THEORY":"SGP4","TLE_LINE1":"1 48021U 21024AW  21266.91668981 -.01132615  00000-0 -76799-1 0  9999","ECCENTRICITY":"0.00014560","SITE":"AFETR","ARG_OF_PERICENTER":"77.2521","OBJECT_NAME":"STARLINK-2301","TLE_LINE2":"2 48021  53.0480  18.9760 0001456  77.2521  89.5975 15.09041849  3667","SEMIMAJOR_AXIS":"6917.263","MEAN_MOTION":"15.09041849","CENTER_NAME":"EARTH","LAUNCH_DATE":"2021-03-24","PERIAPSIS":"538.121","CLASSIFICATION_TYPE":"U","EPOCH":"2021-09-23T22:00:01.999584","FILE":"3125337"},{"SITE":"AFETR","ECCENTRICITY":"0.00020010","TLE_LINE2":"2 48022  53.0551  78.9793 0002001  94.5646  72.8826 15.06391659  3592","ARG_OF_PERICENTER":"94.5646","OBJECT_NAME":"STARLINK-2298","TIME_SYSTEM":"UTC","MEAN_ELEMENT_THEORY":"SGP4","TLE_LINE1":"1 48022U 21024AX  21266.91668981  .00004122  00000-0  29554-3 0  9997","FILE":"3125337","EPOCH":"2021-09-23T22:00:01.999584","CLASSIFICATION_TYPE":"U","MEAN_MOTION":"15.06391659","SEMIMAJOR_AXIS":"6925.374","PERIAPSIS":"545.853","LAUNCH_DATE":"2021-03-24","CENTER_NAME":"EARTH","REV_AT_EPOCH":"359","INCLINATION":"53.0551","OBJECT_TYPE":"PAYLOAD","GP_ID":"185350093","MEAN_MOTION_DDOT":"0.0000000000000","OBJECT_ID":"2021-024AX","MEAN_MOTION_DOT":"0.00004122","RCS_SIZE":"LARGE","NORAD_CAT_ID":"48022","REF_FRAME":"TEME","DECAY_DATE":null,"ELEMENT_SET_NO":"999","COUNTRY_CODE":"US","PERIOD":"95.593","RA_OF_ASC_NODE":"78.9793","MEAN_ANOMALY":"72.8826","EPHEMERIS_TYPE":"0","BSTAR":"0.00029554000000","APOAPSIS":"548.625"},{"FILE":"3125337","EPOCH":"2021-09-23T22:00:01.999584","CLASSIFICATION_TYPE":"U","PERIAPSIS":"546.108","LAUNCH_DATE":"2021-03-24","CENTER_NAME":"EARTH","MEAN_MOTION":"15.06372672","SEMIMAJOR_AXIS":"6925.432","TLE_LINE2":"2 48023  53.0541  78.9640 0001717  87.3153 355.0066 15.06372672  3618","OBJECT_NAME":"STARLINK-2292","ARG_OF_PERICENTER":"87.3153","SITE":"AFETR","ECCENTRICITY":"0.00017170","TLE_LINE1":"1 48023U 21024AY  21266.91668981  .00044285  00000-0  29755-2 0  9994","TIME_SYSTEM":"UTC","MEAN_ELEMENT_THEORY":"SGP4","PERIOD":"95.594","NORAD_CAT_ID":"48023","REF_FRAME":"TEME","DECAY_DATE":null,"ELEMENT_SET_NO":"999","COUNTRY_CODE":"US","EPHEMERIS_TYPE":"0","BSTAR":"0.00297550000000","APOAPSIS":"548.486","RA_OF_ASC_NODE":"78.9640","MEAN_ANOMALY":"355.0066","INCLINATION":"53.0541","OBJECT_TYPE":"PAYLOAD","REV_AT_EPOCH":"361","MEAN_MOTION_DOT":"0.00044285","RCS_SIZE":"LARGE","GP_ID":"185350349","MEAN_MOTION_DDOT":"0.0000000000000","OBJECT_ID":"2021-024AY"},{"OBJECT_NAME":"STARLINK-2302","ARG_OF_PERICENTER":"268.7761","TLE_LINE2":"2 48024  53.0543  11.9648 0005172 268.7761  11.8202 15.75841153  3705","ECCENTRICITY":"0.00051720","SITE":"AFETR","TLE_LINE1":"1 48024U 21024AZ  21266.91668981 -.00606221  00000-0 -41225-2 0  9997","MEAN_ELEMENT_THEORY":"SGP4","TIME_SYSTEM":"UTC","EPOCH":"2021-09-23T22:00:01.999584","CLASSIFICATION_TYPE":"U","FILE":"3125337","CENTER_NAME":"EARTH","PERIAPSIS":"338.765","LAUNCH_DATE":"2021-03-24","SEMIMAJOR_AXIS":"6720.376","MEAN_MOTION":"15.75841153","OBJECT_TYPE":"PAYLOAD","INCLINATION":"53.0543","REV_AT_EPOCH":"370","MEAN_MOTION_DOT":"-0.00606221","RCS_SIZE":"LARGE","MEAN_MOTION_DDOT":"0.0000000000000","OBJECT_ID":"2021-024AZ","GP_ID":"185349601","PERIOD":"91.380","ELEMENT_SET_NO":"999","DECAY_DATE":null,"COUNTRY_CODE":"US","NORAD_CAT_ID":"48024","REF_FRAME":"TEME","APOAPSIS":"345.716","EPHEMERIS_TYPE":"0","BSTAR":"-0.00412250000000","MEAN_ANOMALY":"11.8202","RA_OF_ASC_NODE":"11.9648"},{"TLE_LINE2":"2 48025  53.0543  11.9609 0007239 307.7460 333.4855 15.75843551  3700","OBJECT_NAME":"STARLINK-2318","ARG_OF_PERICENTER":"307.7460","SITE":"AFETR","ECCENTRICITY":"0.00072390","TLE_LINE1":"1 48025U 21024BA  21266.91668981 -.00611954  00000-0 -41584-2 0  9995","MEAN_ELEMENT_THEORY":"SGP4","TIME_SYSTEM":"UTC","FILE":"3125337","CLASSIFICATION_TYPE":"U","EPOCH":"2021-09-23T22:00:01.999584","PERIAPSIS":"337.369","LAUNCH_DATE":"2021-03-24","CENTER_NAME":"EARTH","MEAN_MOTION":"15.75843551","SEMIMAJOR_AXIS":"6720.369","INCLINATION":"53.0543","OBJECT_TYPE":"PAYLOAD","REV_AT_EPOCH":"370","RCS_SIZE":"LARGE","MEAN_MOTION_DOT":"-0.00611954","GP_ID":"185349349","OBJECT_ID":"2021-024BA","MEAN_MOTION_DDOT":"0.0000000000000","PERIOD":"91.380","REF_FRAME":"TEME","NORAD_CAT_ID":"48025","COUNTRY_CODE":"US","DECAY_DATE":null,"ELEMENT_SET_NO":"999","BSTAR":"-0.00415840000000","EPHEMERIS_TYPE":"0","APOAPSIS":"347.099","RA_OF_ASC_NODE":"11.9609","MEAN_ANOMALY":"333.4855"},{"REF_FRAME":"TEME","NORAD_CAT_ID":"48026","COUNTRY_CODE":"US","DECAY_DATE":null,"ELEMENT_SET_NO":"999","PERIOD":"95.698","RA_OF_ASC_NODE":"84.2286","MEAN_ANOMALY":"108.4170","BSTAR":"0.00287240000000","EPHEMERIS_TYPE":"0","APOAPSIS":"553.824","REV_AT_EPOCH":"360","INCLINATION":"53.0519","OBJECT_TYPE":"PAYLOAD","GP_ID":"185350593","MEAN_MOTION_DDOT":"0.0000000000000","OBJECT_ID":"2021-024BB","RCS_SIZE":"LARGE","MEAN_MOTION_DOT":"0.00040874","FILE":"3125337","CLASSIFICATION_TYPE":"U","EPOCH":"2021-09-23T22:00:01.999584","MEAN_MOTION":"15.04736401","SEMIMAJOR_AXIS":"6930.452","PERIAPSIS":"550.810","LAUNCH_DATE":"2021-03-24","CENTER_NAME":"EARTH","SITE":"AFETR","ECCENTRICITY":"0.00021740","TLE_LINE2":"2 48026  53.0519  84.2286 0002174  92.5512 108.4170 15.04736401  3604","OBJECT_NAME":"STARLINK-2278","ARG_OF_PERICENTER":"92.5512","TIME_SYSTEM":"UTC","MEAN_ELEMENT_THEORY":"SGP4","TLE_LINE1":"1 48026U 21024BB  21266.91668981  .00040874  00000-0  28724-2 0  9992"},{"RA_OF_ASC_NODE":"58.9681","MEAN_ANOMALY":"330.1450","EPHEMERIS_TYPE":"0","BSTAR":"0.00234190000000","APOAPSIS":"548.379","NORAD_CAT_ID":"48027","REF_FRAME":"TEME","ELEMENT_SET_NO":"999","DECAY_DATE":null,"COUNTRY_CODE":"US","PERIOD":"95.594","GP_ID":"185350849","MEAN_MOTION_DDOT":"0.0000000000000","OBJECT_ID":"2021-024BC","MEAN_MOTION_DOT":"0.00034753","RCS_SIZE":"LARGE","REV_AT_EPOCH":"360","INCLINATION":"53.0550","OBJECT_TYPE":"PAYLOAD","MEAN_MOTION":"15.06377734","SEMIMAJOR_AXIS":"6925.417","LAUNCH_DATE":"2021-03-24","PERIAPSIS":"546.184","CENTER_NAME":"EARTH","FILE":"3125337","EPOCH":"2021-09-23T22:00:01.999584","CLASSIFICATION_TYPE":"U","TIME_SYSTEM":"UTC","MEAN_ELEMENT_THEORY":"SGP4","TLE_LINE1":"1 48027U 21024BC  21266.91668981  .00034753  00000-0  23419-2 0  9998","SITE":"AFETR","ECCENTRICITY":"0.00015850","TLE_LINE2":"2 48027  53.0550  58.9681 0001585  82.1666 330.1450 15.06377734  3604","ARG_OF_PERICENTER":"82.1666","OBJECT_NAME":"STARLINK-2300"}];
